satname,norad_id,inclination_deg,eccentricity,mean_motion_rev_per_day,perigee_km,apogee_km,l1,l2
STARLINK-1246,45235,53.0543,0.0001129,15.06398682,546.4337251131474,547.9974697296439,1 45235U 20012BK  25277.72889780  .00001611  00000+0  12704-3 0  9991,2 45235  53.0543  26.7528 0001129  94.5832 265.5286 15.06398682311350
STARLINK-1247,45236,53.0327,0.0002852,16.15124492,230.93719835316278,234.70808973412477,1 45236U 20012BL  25277.44574689  .01264497  11595-2  93735-3 0  9991,2 45236  53.0327 285.6640 0002852  31.5117 328.6089 16.15124492312713
STARLINK-1270,45237,53.0552,0.0001393,15.06380768,546.3057926104584,548.2352111404816,1 45237U 20012BM  25277.46721344 -.00000873  00000+0 -39752-4 0  9999,2 45237  53.0552 347.9300 0001393  80.7224 279.3923 15.06380768311855
STARLINK-1279,45360,53.0524,0.0001041,15.06378178,546.5575042854161,547.9993757800303,1 45360U 20019A   25277.82382617  .00005916  00000+0  41592-3 0  9994,2 45360  53.0524 116.3262 0001041  85.2342 274.8766 15.06378178306645
STARLINK-1301,45361,53.055,6.23e-05,15.06446077,546.6389017516894,547.5017825865225,1 45361U 20019B   25277.87816231  .00033386  00000+0  22469-2 0  9997,2 45361  53.0550 126.0834 0000623  87.6497 272.4563 15.06446077306520
STARLINK-1306,45362,53.0496,0.000949,15.59756671,381.939318836824,394.78213151921227,1 45362U 20019C   25276.66670139  .00152966  00000+0  18432-2 0  9990,2 45362  53.0496 130.3905 0009490 133.4367 193.0611 15.59756671  5940
STARLINK-1262,45366,53.0529,8.17e-05,15.06398844,546.6492996474044,547.7809021806934,1 45366U 20019G   25277.64412955  .00003261  00000+0  23770-3 0  9998,2 45366  53.0529 147.1324 0000817  73.9542 286.1537 15.06398844306210
STARLINK-1273,45367,53.0523,0.0001357,15.06380006,546.3330592314724,548.212615461327,1 45367U 20019H   25277.66624896  .00015188  00000+0  10369-2 0  9990,2 45367  53.0523 147.0370 0001357  88.6776 271.4368 15.06380006306217
STARLINK-1276,45368,53.053,0.0001355,15.06394717,546.2893626961331,548.1661365432801,1 45368U 20019J   25276.37617371  .00003909  00000+0  28124-3 0  9995,2 45368  53.0530 152.8288 0001355 104.4715 255.6425 15.06394717306027
STARLINK-1277,45369,53.0532,0.0001723,15.06398368,546.0233213693909,548.4097982060948,1 45369U 20019K   25276.63426619  .00005691  00000+0  40068-3 0  9999,2 45369  53.0532 152.2983 0001723  96.2124 263.9061 15.06398368306054
STARLINK-1281,45370,53.0536,0.0001227,15.06421901,546.2947033087075,547.99416737294,1 45370U 20019L   25276.49781190  .00013619  00000+0  93087-3 0  9991,2 45370  53.0536 152.2823 0001227  67.5817 292.5302 15.06421901306047
STARLINK-1300,45374,53.0473,0.000142,15.06397177,546.2368093163759,548.2036107640279,1 45374U 20019Q   25277.64781957  .00001391  00000+0  11229-3 0  9996,2 45374  53.0473 147.1171 0001420 101.8423 258.2725 15.06397177306214
STARLINK-1302,45375,53.0534,0.0001518,15.06399689,546.161243052863,548.2637791644365,1 45375U 20019R   25277.66255441 -.00000920  00000+0 -42841-4 0  9997,2 45375  53.0534 147.0535 0001518  90.0544 270.0619 15.06399689306211
STARLINK-1304,45376,53.0522,0.0001314,15.06429051,546.2125431370469,548.0325013394904,1 45376U 20019S   25275.95595315  .00012526  00000+0  85761-3 0  9995,2 45376  53.0522 154.7135 0001314 108.0426 252.0706 15.06429051305957
STARLINK-1305,45377,53.0523,0.0001637,15.06406247,546.0587354244562,548.3260882738969,1 45377U 20019T   25277.64044266  .00003545  00000+0  25671-3 0  9993,2 45377  53.0523 147.1494 0001637  85.3544 274.7632 15.06406247306210
STARLINK-1319,45379,53.0528,0.0001654,15.06406676,546.0456477681137,548.3365463026121,1 45379U 20019V   25277.63306882  .00006115  00000+0  42901-3 0  9990,2 45379  53.0528 147.1873 0001654  86.8116 273.3062 15.06406676306216
STARLINK-1266,45383,53.0531,0.0001243,15.06396176,546.3624556897612,548.0841002548641,1 45383U 20019Z   25276.63971216  .00000671  00000+0  63915-4 0  9993,2 45383  53.0531 131.6462 0001243  99.9926 260.1203 15.06396176306332
STARLINK-1267,45384,53.0552,0.0001417,15.06394728,546.2463917258501,548.2090400863372,1 45384U 20019AA  25277.88565197  .00001905  00000+0  14678-3 0  9991,2 45384  53.0552 126.7083 0001417  91.4086 268.7065 15.06394728306518
STARLINK-1272,45386,53.053,0.0001622,15.06418892,546.0303751397296,548.2769394289526,1 45386U 20019AC  25276.63233942  .00011815  00000+0  81034-3 0  9996,2 45386  53.0530 131.6788 0001622  68.3029 291.8132 15.06418892306332
STARLINK-1274,45387,53.0352,0.0007867,15.2609866,482.0871610371578,492.8895359604858,1 45387U 20019AD  25277.83112296  .00021170  00000+0  82043-3 0  9994,2 45387  53.0352 115.5743 0007867 122.4205 237.7554 15.26098660306664
STARLINK-1280,45388,53.0522,0.0003827,15.0639523,544.5758408518814,549.8765138278168,1 45388U 20019AE  25277.61833481  .00001722  00000+0  13451-3 0  9995,2 45388  53.0522 147.2525 0003827  82.1418 278.0005 15.06395230306192
STARLINK-1283,45389,53.0535,0.0001416,15.06399226,546.2333004461088,548.1945598295242,1 45389U 20019AF  25276.60285572  .00006916  00000+0  48275-3 0  9998,2 45389  53.0535 131.8073 0001416  98.1649 261.9501 15.06399226306336
STARLINK-1284,45390,53.0542,0.0001605,15.06393076,546.1212572327804,548.3443009318653,1 45390U 20019AG  25277.83764485 -.00000432  00000+0 -10094-4 0  9999,2 45390  53.0542 126.2672 0001605  80.4820 279.6350 15.06393076306519
STARLINK-1292,45394,53.0487,0.0003827,15.78843187,331.1485097594241,336.28576291537684,1 45394U 20019AL  25277.91667823  .00271026  00000+0  14626-2 0  9990,2 45394  53.0487  91.3323 0003827 239.4411  18.2956 15.78843187  5973
STARLINK-1297,45395,53.0499,0.0001417,15.06397744,546.2371493915634,548.199795132402,1 45395U 20019AM  25277.87449758 -.00000274  00000+0  48089-6 0  9991,2 45395  53.0499 126.0996 0001417  85.4203 274.6948 15.06397744305707
STARLINK-1307,45397,53.0539,0.0001424,15.0639165,546.2509763249664,548.2233228827736,1 45397U 20019AP  25277.86713850  .00002206  00000+0  16696-3 0  9991,2 45397  53.0539 126.1316 0001424  89.8240 270.2912 15.06391650306342
STARLINK-1312,45398,53.0469,0.0005376,15.78352229,331.49987072035765,338.7179527246417,1 45398U 20019AQ  25277.91667823  .00359734  00000+0  19623-2 0  9999,2 45398  53.0469  90.8982 0005376 147.6454 260.0467 15.78352229  6034
STARLINK-1255,45399,53.0522,0.0001381,15.06410366,546.22340157504,548.1361740718366,1 45399U 20019AR  25276.57427718  .00011900  00000+0  81623-3 0  9998,2 45399  53.0522 121.9399 0001381 101.3980 258.7164 15.06410366306271
STARLINK-1259,45403,53.0441,0.0002007,15.91977629,295.40957756672833,298.08887689833955,1 45403U 20019AV  25277.91667823  .00434190  83569-4  12892-2 0  9993,2 45403  53.0441  71.6111 0002007 102.0045 249.3429 15.91977629  6053
STARLINK-1260,45404,53.0535,0.0001874,15.06403412,545.9032923093691,548.4989090294985,1 45404U 20019AW  25276.54111039  .00001407  00000+0  11335-3 0  9992,2 45404  53.0535 122.0862 0001874  89.4344 270.6860 15.06403412306175
STARLINK-1263,45405,53.0527,0.0001843,15.06405675,545.9178264015336,548.4705034689277,1 45405U 20019AX  25277.85329905  .00002017  00000+0  15427-3 0  9995,2 45405  53.0527 116.1980 0001843  91.5005 268.6195 15.06405675306379
STARLINK-1265,45406,53.0518,0.0001655,15.06392508,546.0883709478485,548.3806689209478,1 45406U 20019AY  25277.86068169  .00001163  00000+0  97004-4 0  9992,2 45406  53.0518 116.1629 0001655  84.2413 275.8764 15.06392508306375
STARLINK-1278,45408,53.0531,0.0001355,15.06396004,546.2854187407265,548.1621915189162,1 45408U 20019BA  25276.09603527  .00011338  00000+0  77892-3 0  9998,2 45408  53.0531 154.0853 0001355  87.7909 272.3236 15.06396004305692
STARLINK-1296,45412,53.0512,0.0001154,15.06402499,546.4047145340573,548.003083213518,1 45412U 20019BE  25276.60378390  .00000807  00000+0  73085-4 0  9997,2 45412  53.0512 121.8053 0001154  99.1960 260.9159 15.06402499306189
STARLINK-1298,45413,53.0494,0.0009599,15.45712798,422.7500173348726,435.8189050560759,1 45413U 20019BF  25277.91667823  .00196044  00000+0  38972-2 0  9998,2 45413  53.0494 100.1259 0009599 153.3989 119.6362 15.45712798  5947
STARLINK-1309,45414,53.053,0.0001318,15.06389231,546.3317982788049,548.1573288589616,1 45414U 20019BG  25277.54737885  .00001593  00000+0  12587-3 0  9993,2 45414  53.0530 117.5702 0001318  99.4318 260.6820 15.06389231306311
STARLINK-1316,45415,53.0548,0.000131,15.06395757,546.3173397880555,548.1317845173398,1 45415U 20019BH  25277.83855926 -.00001123  00000+0 -56544-4 0  9996,2 45415  53.0548 116.2603 0001310  88.6964 271.4175 15.06395757306397
STARLINK-1318,45416,53.0519,7.68e-05,15.57207722,395.2224032919057,396.262871204186,1 45416U 20019BJ  25277.82297457  .00060485  00000+0  81706-3 0  9996,2 45416  53.0519  93.9126 0000768 290.3988  69.6940 15.57207722306691
STARLINK-1286,45417,53.0525,0.0001599,15.06399628,546.1053346482131,548.3200614816551,1 45417U 20019BK  25276.08498910  .00005228  00000+0  36963-3 0  9990,2 45417  53.0525 154.1343 0001599  70.2672 289.8489 15.06399628305962
STARLINK-1308,45419,53.0521,0.0001346,15.06402616,546.271389449932,548.1356911233761,1 45419U 20019BM  25275.88226571  .00017705  00000+0  12044-2 0  9997,2 45419  53.0521 155.0461 0001346 122.8719 237.2400 15.06402616305688
STARLINK-1329,45531,53.0536,0.0001684,15.06397983,546.0515100214989,548.3839694978496,1 45531U 20025A   25277.77497294 -.00001173  00000+0 -59861-4 0  9995,2 45531  53.0536  86.5460 0001684  88.7623 271.3558 15.06397983301594
STARLINK-1338,45532,53.0542,0.0001034,15.06390528,546.5245043635341,547.9566724488168,1 45532U 20025B   25277.85237079 -.00004328  00000+0 -27189-3 0  9990,2 45532  53.0542  86.1958 0001034  89.7050 270.4057 15.06390528301608
STARLINK-1350,45535,53.0751,0.0001071,15.31477673,470.66923490407316,472.13640633364867,1 45535U 20025E   25277.73499605  .00018299  00000+0  60411-3 0  9990,2 45535  53.0751  43.0298 0001071 124.8345 235.2756 15.31477673302220
